56P/Slaughter-Burnham,e,8.1604,345.9914,43.9864,5.069995,0.0863362,0.50736415,149.0896,04/11.0/2021,2000,g  8.5,6.0
# From MPC 98565
57P/du Toit-Neujmin-Delporte,e,2.8509,188.7789,115.2578,3.445959,0.1540774,0.50081960,330.8109,04/11.0/2021,2000,g 12.5,6.0
# From MPEC 2020-SI8
58P/Jackson-Neujmin,e,13.1104,159.0760,200.4519,4.081260,0.1195398,0.66249287,38.0799,04/11.0/2021,2000,g 15.5,6.0
# From MPEC 2021-F20
59P/Kearns-Kwee,e,9.3413,312.8344,127.5523,4.487678,0.1036744,0.47505172,97.2027,04/11.0/2021,2000,g  7.0,6.0
# From MPEC 2021-F20
60P/Tsuchinshan,e,3.5926,267.5620,216.9307,3.522275,0.1490971,0.53528146,127.1701,04/11.0/2021,2000,g 11.5,6.0
# From MPEC 2015-Q71
61P/Shajn-Schaldach,e,5.9988,162.9798,221.8466,3.686285,0.1392582,0.42388789,281.8268,04/11.0/2021,2000,g  6.0,10.0
# From MPC109147
62P/Tsuchinshan,e,4.7822,69.8022,46.7112,3.349502,0.1607806,0.63105535,201.5466,04/11.0/2021,2000,g  8.0,10.0
# From MPC 84320
63P/Wild,e,19.7294,358.0186,169.1098,5.606296,0.0742489,0.64883298,217.4838,04/11.0/2021,2000,g 10.5,6.0
# From MPC111774
64P/Swift-Gehrels,e,8.9502,299.9979,97.0733,4.453902,0.1048560,0.68787752,93.2032,04/11.0/2021,2000,g  9.5,12.0
# From MPEC 2021-FB5
65P/Gunn,e,9.1800,62.0200,213.8643,3.885612,0.1286812,0.24951912,163.5821,04/11.0/2021,2000,g  5.0,6.0
# From MPC109147
66P/du Toit,e,18.6513,21.8382,257.3661,6.065956,0.0659713,0.78678485,69.7885,04/11.0/2021,2000,g  9.0,4.0
# From MPC 89011
67P/Churyumov-Gerasimenko,e,3.8709,36.3522,22.1033,3.458495,0.1532405,0.64998368,328.5826,04/11.0/2021,2000,g 11.0,4.0
# From MPC 75716
68P/Klemola,e,11.1101,175.0656,153.1242,4.952818,0.0894181,0.63764528,46.3967,04/11.0/2021,2000,g 10.0,4.0
# From MPC114607
69P/Taylor,e,22.0336,104.8271,343.4579,3.887738,0.1285756,0.41307795,97.0575,04/11.0/2021,2000,g  9.5,12.0
# From MPEC 2021-BE3
70P/Kojima,e,6.5982,119.2685,1.8422,3.676559,0.1398111,0.45357830,331.1770,04/11.0/2021,2000,g 11.0,6.0
# From MPC107051
71P/Clark,e,9.4385,59.4209,209.0449,3.138321,0.1772793,0.49399756,244.6827,04/11.0/2021,2000,g  9.8,6.0
# From MPC 89011
72P/Denning-Fujikawa,e,10.9399,26.6907,346.6848,4.310954,0.1101144,0.81835168,272.3456,04/11.0/2021,2000,g 17.5,10.0
# From MPC106348
73P/Schwassmann-Wachmann,e,11.2298,69.6338,199.4636,3.092949,0.1811944,0.68555678,269.1098,04/11.0/2021,2000,g 11.5,6.0
# From MPC106348
73P-T/Schwassmann-Wachmann,e,11.2319,69.6364,199.4451,3.094512,0.1810572,0.68575943,268.9072,04/11.0/2021,2000,g 11.5,6.0
# From MPEC 2021-BE3
74P/Smirnova-Chernykh,e,6.2792,74.0834,101.9473,4.292292,0.1108333,0.15104377,121.2619,04/11.0/2021,2000,g  5.0,6.0
# From MPEC 2020-SI8
76P/West-Kohoutek-Ikemura,e,30.4588,84.1178,359.9756,3.472884,0.1522890,0.53811507,81.1606,04/11.0/2021,2000,g  8.0,12.0
# From MPC100283
77P/Longmore,e,24.3196,14.7843,196.8433,3.621597,0.1430059,0.35208771,256.7017,04/11.0/2021,2000,g  7.0,8.0
# From MPEC 2021-FB5
78P/Gehrels,e,6.2507,210.5219,192.6433,3.739082,0.1363191,0.46201242,100.7642,04/11.0/2021,2000,g  5.5,8.0
# From MPC 94675
79P/du Toit-Hartley,e,3.1479,280.5312,281.8032,2.942875,0.1952299,0.61885453,183.7434,04/11.0/2021,2000,g 16.0,4.0
# From MPEC 2014-P41
80P/Peters-Hartley,e,29.9328,259.8178,339.2528,4.024326,0.1220856,0.59885366,285.9212,04/11.0/2021,2000,g  9.0,4.0
# From MPC105241
81P/Wild,e,3.2368,136.0984,41.6871,3.451424,0.1537116,0.53704240,265.6557,04/11.0/2021,2000,g  7.0,6.0
# From MPEC 2020-L06
82P/Gehrels,e,1.1286,239.3092,226.7076,4.135577,0.1171925,0.12169134,119.6367,04/11.0/2021,2000,g  5.0,8.0
# From MPEC 2021-FB5
84P/Giclas,e,7.5520,108.1744,281.5715,3.548924,0.1474209,0.51568545,45.8702,04/11.0/2021,2000,g  9.5,8.0
# From MPC109147
86P/Wild,e,15.4740,72.3622,179.3701,3.602722,0.1441312,0.37247027,316.4001,04/11.0/2021,2000,g 11.0,6.0
# From MPEC 2020-SI8
87P/Bus,e,2.6042,181.8118,25.1088,3.442774,0.1542912,0.38987373,51.8924,04/11.0/2021,2000,g  7.2,10.0
# From MPEC 2019-JE2
88P/Howell,e,4.3837,56.6799,235.9013,3.105064,0.1801350,0.56425025,35.3796,04/11.0/2021,2000,g 11.0,6.0
# From MPC100283
89P/Russell,e,12.0694,41.3862,250.3316,3.753960,0.1355095,0.40861442,213.6664,04/11.0/2021,2000,g 11.5,6.0
# From MPC107051
90P/Gehrels,e,9.6458,13.2065,29.0715,6.053092,0.0661817,0.51003167,92.1077,04/11.0/2021,2000,g  8.5,6.0
# From MPC105241
91P/Russell,e,14.0890,247.8236,354.8390,3.892557,0.1283369,0.33096047,19.5689,04/11.0/2021,2000,g  7.5,6.0
# From MPEC 2014-J58
92P/Sanguin,e,19.4935,181.3714,163.7439,5.344536,0.0797699,0.66085500,177.8748,04/11.0/2021,2000,g 12.0,6.0
# From NK 2707
93P/Lovas,e,12.2033,339.6442,74.8186,4.383084,0.1074074,0.61248075,161.3375,04/11.0/2021,2000,g  9.0,4.0
# From MPEC 2020-W26
94P/Russell,e,6.1879,70.8592,92.4676,3.507311,0.1500523,0.36484575,244.3824,04/11.0/2021,2000,g  9.0,6.0
# From MPC 75717
95P/Chiron,e,6.9317,209.2691,339.7331,13.69828,0.0194404,0.37749138,179.0790,04/11.0/2021,2000,g  6.5,2.0
# From MPEC 2017-T14
96P/Machholz,e,57.6311,94.0151,14.7326,3.027999,0.1870555,0.96159836,236.4859,04/11.0/2021,2000,g  9.0,4.0
# From MPC 77020
97P/Metcalf-Brewington,e,17.9428,184.0832,229.8667,4.766978,0.0946977,0.46068072,330.6273,04/11.0/2021,2000,g  5.5,6.0
# From MPEC 2013-H38
98P/Takamizawa,e,10.5610,114.7111,157.9136,3.800351,0.1330358,0.56242064,12.7821,04/11.0/2021,2000,g  9.0,8.0
# From MPEC 2021-FB5
99P/Kowal,e,4.3387,28.1082,174.9612,6.110334,0.0652539,0.22985552,336.0576,04/11.0/2021,2000,g  4.5,6.0
# From MPEC 2013-O31
100P/Hartley,e,25.5657,37.7027,181.9933,3.432238,0.1550022,0.41236393,284.5178,04/11.0/2021,2000,g  9.0,4.0
# From MPEC 2021-FB5
101P/Chernykh,e,5.0528,116.2293,277.7023,5.802530,0.0705144,0.59590751,32.0422,04/11.0/2021,2000,g 10.0,4.8
# From MPC 86232
102P/Shoemaker,e,25.8849,339.3661,20.5410,3.812806,0.1323844,0.45711082,10.4060,04/11.0/2021,2000,g  6.5,8.0
# From MPEC 2018-HA5
103P/Hartley,e,13.5999,219.7304,181.2843,3.476203,0.1520710,0.69318311,220.8668,04/11.0/2021,2000,g  8.5,8.0
# From MPC100283
104P/Kowal,e,5.7182,207.4482,227.0637,3.208403,0.1715026,0.66573006,312.8264,04/11.0/2021,2000,g 16.0,4.0
# From MPC109147
105P/Singer Brewster,e,9.1709,192.4136,46.4851,3.467209,0.1526631,0.40954736,148.8874,04/11.0/2021,2000,g 11.5,6.0
# From MPC 92276
106P/Schuster,e,19.5356,48.8909,353.6541,3.763414,0.1349992,0.59380972,342.4836,04/11.0/2021,2000,g 14.0,4.8
# From MPEC 2015-M77
107P/Wilson-Harrington,e,2.7986,266.7957,95.4005,2.625338,0.2317002,0.63151934,243.9829,04/11.0/2021,2000,g  9.0,4.0
# From MPC 89313
108P/Ciffreo,e,11.4366,50.2990,354.3957,3.739716,0.1362844,0.55602949,339.2770,04/11.0/2021,2000,g  8.0,12.0
# From  105, 420
109P/Swift-Tuttle,e,113.9904,139.0367,152.9046,26.13595,0.0073764,0.96290907,76.3970,04/11.0/2021,2000,g  4.0,6.0
# From MPEC 2020-W26
110P/Hartley,e,11.7073,287.5340,167.4551,3.601106,0.1442282,0.31806594,332.5473,04/11.0/2021,2000,g  1.0,12.0
# From MPC 75718
111P/Helin-Roman-Crockett,e,4.2271,89.7666,1.0117,4.146806,0.1167169,0.10590700,352.3228,04/11.0/2021,2000,g  5.0,8.0
# From MPC118097
112P/Urata-Niijima,e,24.1945,31.8375,21.4878,3.525779,0.1488749,0.58986009,63.7217,04/11.0/2021,2000,g 14.0,6.0
# From MPEC 2015-E14
113P/Spitaler,e,5.2978,306.7147,115.3248,3.701589,0.1383954,0.42147448,302.4701,04/11.0/2021,2000,g 13.5,4.0
# From MPEC 2021-BE3
114P/Wiseman-Skiff,e,18.2728,271.0526,172.7796,3.545594,0.1476286,0.55473405,66.8699,04/11.0/2021,2000,g 11.5,6.0
# From MPEC 2020-SI8
115P/Maury,e,11.6775,176.0099,120.9809,4.272826,0.1115915,0.51865327,28.4968,04/11.0/2021,2000,g 10.5,6.0
# From MPC106348
116P/Wild,e,3.6034,20.9869,173.3477,3.489612,0.1511954,0.37065343,290.1417,04/11.0/2021,2000,g  2.5,10.0
# From MPEC 2021-FB5
117P/Helin-Roman-Alu,e,8.7024,58.8443,222.8341,4.085023,0.1193747,0.25573089,306.0099,04/11.0/2021,2000,g  2.5,8.0
# From MPC 95735
118P/Shoemaker-Levy,e,10.0786,142.1156,314.2434,3.366241,0.1595828,0.45581788,265.8767,04/11.0/2021,2000,g 12.0,4.0
# From MPC 84628
119P/Parker-Hartley,e,7.4105,104.7241,321.6061,3.820510,0.1319842,0.39072316,295.7947,04/11.0/2021,2000,g  3.5,8.0
# From MPEC 2020-SI8
120P/Mueller,e,8.4900,358.6743,36.5550,3.961445,0.1250039,0.37450393,356.7334,04/11.0/2021,2000,g 12.0,4.0
# From MPEC 2020-SI8
121P/Shoemaker-Holt,e,20.1630,94.1298,11.3485,4.585091,0.1003881,0.18553789,278.9662,04/11.0/2021,2000,g  6.5,8.0
# From MPC 75718
122P/de Vico,e,84.8730,79.5482,13.0091,17.62760,0.0133172,0.96225689,124.4234,04/11.0/2021,2000,g  7.5,5.2
# From MPC114608
123P/West-Hartley,e,15.2980,46.2210,103.7683,3.872902,0.1293151,0.44742703,102.9041,04/11.0/2021,2000,g  4.0,10.0
# From MPEC 2020-SI8
124P/Mrkos,e,31.5170,0.3435,183.9405,3.319891,0.1629365,0.50350197,56.8680,04/11.0/2021,2000,g 13.5,2.8
# From MPEC 2015-M77
125P/Spacewatch,e,9.9866,153.1507,87.2390,3.125770,0.1783482,0.51274773,170.7644,04/11.0/2021,2000,g  9.0,4.0
# From MPC 66205
126P/IRAS,e,45.8676,357.8611,356.5199,5.640366,0.0735772,0.69624719,300.0084,04/11.0/2021,2000,g  9.0,4.0
# From MPC 84321
127P/Holt-Olmstead,e,14.2968,13.6380,6.4825,3.450975,0.1537416,0.35988210,285.1123,04/11.0/2021,2000,g 11.0,6.0
# From MPC 89014
128P/Shoemaker-Holt,e,4.3673,214.2968,210.3140,4.492448,0.1035093,0.32067663,160.7229,04/11.0/2021,2000,g  8.5,4.0
# From MPEC 2019-TG9
129P/Shoemaker-Levy,e,3.4424,184.8832,307.8692,4.283103,0.1111901,0.08400140,293.1201,04/11.0/2021,2000,g 11.0,4.0
# From MPC 78188
130P/McNaught-Hughes,e,6.0629,70.2296,246.0015,3.383825,0.1583406,0.46136724,185.9546,04/11.0/2021,2000,g 10.0,6.0
# From MPC102101
131P/Mueller,e,7.3550,214.1598,179.0277,3.680804,0.1395693,0.34387270,112.7320,04/11.0/2021,2000,g 11.0,4.0
# From MPEC 2020-HN5
132P/Helin-Roman-Alu,e,5.3808,174.0105,216.3462,3.888634,0.1285312,0.56503108,332.2203,04/11.0/2021,2000,g 11.0,6.0
# From MPC 94676
133P/Elst-Pizarro,e,1.3892,160.1103,131.8173,3.164585,0.1750769,0.15698148,163.2086,04/11.0/2021,2000,g 15.4,2.0
# From MPC 89012
134P/Kowal-Vavrova,e,4.3404,202.0744,18.8869,6.259935,0.0629288,0.58616095,158.5018,04/11.0/2021,2000,g 11.5,4.0
# From MPEC 2021-F20
